start=new Date('2022-11-30T00:00:00.000Z').valueOf();
sats=[{"RA_OF_ASC_NODE":"248.1583","MEAN_MOTION":"15.08845663","ARG_OF_PERICENTER":"31.6097","PERIAPSIS":"537.566","SITE":"AFETR","REV_AT_EPOCH":"3030","TLE_LINE1":"1 52604U 22052G   22333.69129580  .00001093  00000-0  86807-4 0  9997","GP_ID":"219111931","TLE_LINE2":"2 52604  53.2186 248.1583 0003125  31.6097 328.5082 15.08845663 30302","LAUNCH_DATE":"2022-05-14","INCLINATION":"53.2186","MEAN_MOTION_DDOT":"0.0000000000000","RCS_SIZE":"LARGE","REF_FRAME":"TEME","OBJECT_ID":"2022-052G","MEAN_MOTION_DOT":"0.00001093","MEAN_ELEMENT_THEORY":"SGP4","EPOCH":"2022-11-29T16:35:27.957120","APOAPSIS":"541.890","COUNTRY_CODE":"US","CLASSIFICATION_TYPE":"U","OBJECT_TYPE":"PAYLOAD","BSTAR":"0.00008680700000","TIME_SYSTEM":"UTC","FILE":"3673849","NORAD_CAT_ID":"52604","DECAY_DATE":null,"ECCENTRICITY":"0.00031250","ELEMENT_SET_NO":"999","CENTER_NAME":"EARTH","PERIOD":"95.437","OBJECT_NAME":"STARLINK-4013","EPHEMERIS_TYPE":"0","MEAN_ANOMALY":"328.5082","SEMIMAJOR_AXIS":"6917.863"},{"PERIAPSIS":"538.191","SITE":"AFETR","RA_OF_ASC_NODE":"252.7090","MEAN_MOTION":"15.08845724","ARG_OF_PERICENTER":"42.9490","TLE_LINE1":"1 52605U 22052H   22333.79203175  .00002093  00000-0  14954-3 0  9996","GP_ID":"219113181","TLE_LINE2":"2 52605  53.2176 252.7090 0002221  42.9490 317.1675 15.08845724 30247","REV_AT_EPOCH":"3024","RCS_SIZE":"LARGE","REF_FRAME":"TEME","LAUNCH_DATE":"2022-05-14","INCLINATION":"53.2176","MEAN_MOTION_DDOT":"0.0000000000000","APOAPSIS":"541.264","COUNTRY_CODE":"US","OBJECT_ID":"2022-052H","MEAN_ELEMENT_THEORY":"SGP4","MEAN_MOTION_DOT":"0.00002093","EPOCH":"2022-11-29T19:00:31.543200","OBJECT_TYPE":"PAYLOAD","BSTAR":"0.00014954000000","CLASSIFICATION_TYPE":"U","DECAY_DATE":null,"ECCENTRICITY":"0.00022210","TIME_SYSTEM":"UTC","NORAD_CAT_ID":"52605","FILE":"3673849","PERIOD":"95.437","OBJECT_NAME":"STARLINK-4000","ELEMENT_SET_NO":"999","CENTER_NAME":"EARTH","SEMIMAJOR_AXIS":"6917.863","MEAN_ANOMALY":"317.1675","EPHEMERIS_TYPE":"0"},{"ECCENTRICITY":"0.00027770","DECAY_DATE":null,"NORAD_CAT_ID":"52606","FILE":"3673348","TIME_SYSTEM":"UTC","OBJECT_TYPE":"PAYLOAD","BSTAR":"0.00009419100000","CLASSIFICATION_TYPE":"U","SEMIMAJOR_AXIS":"6917.890","EPHEMERIS_TYPE":"0","MEAN_ANOMALY":"325.5965","OBJECT_NAME":"STARLINK-3928","PERIOD":"95.438","CENTER_NAME":"EARTH","ELEMENT_SET_NO":"999","TLE_LINE2":"2 52606  53.2185 249.0717 0002777  34.5207 325.5965 15.08836744 30643","GP_ID":"219076492","TLE_LINE1":"1 52606U 22052J   22333.48889392  .00001211  00000-0  94191-4 0  9997","REV_AT_EPOCH":"3064","SITE":"AFETR","PERIAPSIS":"537.834","MEAN_MOTION":"15.08836744","ARG_OF_PERICENTER":"34.5207","RA_OF_ASC_NODE":"249.0717","COUNTRY_CODE":"US","APOAPSIS":"541.676","EPOCH":"2022-11-29T11:44:00.434688","MEAN_MOTION_DOT":"0.00001211","MEAN_ELEMENT_THEORY":"SGP4","OBJECT_ID":"2022-052J","REF_FRAME":"TEME","RCS_SIZE":"LARGE","INCLINATION":"53.2185","MEAN_MOTION_DDOT":"0.0000000000000","LAUNCH_DATE":"2022-05-14"},{"TLE_LINE1":"1 52607U 22052K   22333.51971194  .00001520  00000-0  11360-3 0  9993","TLE_LINE2":"2 52607  53.2183 253.9307 0002370  39.3383 320.7781 15.08845400 30190","GP_ID":"219111681","REV_AT_EPOCH":"3019","PERIAPSIS":"538.089","SITE":"AFETR","RA_OF_ASC_NODE":"253.9307","ARG_OF_PERICENTER":"39.3383","MEAN_MOTION":"15.08845400","APOAPSIS":"541.368","COUNTRY_CODE":"US","OBJECT_ID":"2022-052K","EPOCH":"2022-11-29T12:28:23.111616","MEAN_MOTION_DOT":"0.00001520","MEAN_ELEMENT_THEORY":"SGP4","RCS_SIZE":"LARGE","REF_FRAME":"TEME","INCLINATION":"53.2183","MEAN_MOTION_DDOT":"0.0000000000000","LAUNCH_DATE":"2022-05-14","DECAY_DATE":null,"ECCENTRICITY":"0.00023700","TIME_SYSTEM":"UTC","NORAD_CAT_ID":"52607","FILE":"3673849","OBJECT_TYPE":"PAYLOAD","BSTAR":"0.00011360000000","CLASSIFICATION_TYPE":"U","SEMIMAJOR_AXIS":"6917.864","EPHEMERIS_TYPE":"0","MEAN_ANOMALY":"320.7781","PERIOD":"95.437","OBJECT_NAME":"STARLINK-3947","ELEMENT_SET_NO":"999","CENTER_NAME":"EARTH"},{"RA_OF_ASC_NODE":"249.1068","ARG_OF_PERICENTER":"32.3038","MEAN_MOTION":"15.08851675","PERIAPSIS":"537.683","SITE":"AFETR","REV_AT_EPOCH":"3064","TLE_LINE1":"1 52608U 22052L   22333.48153366  .00004017  00000-0  27029-3 0  9996","GP_ID":"219076576","TLE_LINE2":"2 52608  53.2178 249.1068 0002930  32.3038 327.8133 15.08851675 30648","LAUNCH_DATE":"2022-05-14","INCLINATION":"53.2178","MEAN_MOTION_DDOT":"0.0000000000000","RCS_SIZE":"LARGE","REF_FRAME":"TEME","OBJECT_ID":"2022-052L","MEAN_ELEMENT_THEORY":"SGP4","MEAN_MOTION_DOT":"0.00004017","EPOCH":"2022-11-29T11:33:24.508224","APOAPSIS":"541.737","COUNTRY_CODE":"US","CLASSIFICATION_TYPE":"U","OBJECT_TYPE":"PAYLOAD","BSTAR":"0.00027029000000","TIME_SYSTEM":"UTC","FILE":"3673349","NORAD_CAT_ID":"52608","DECAY_DATE":null,"ECCENTRICITY":"0.00029300","ELEMENT_SET_NO":"999","CENTER_NAME":"EARTH","PERIOD":"95.437","OBJECT_NAME":"STARLINK-3979","MEAN_ANOMALY":"327.8133","EPHEMERIS_TYPE":"0","SEMIMAJOR_AXIS":"6917.845"},{"EPHEMERIS_TYPE":"0","MEAN_ANOMALY":"327.4995","SEMIMAJOR_AXIS":"6917.912","CENTER_NAME":"EARTH","ELEMENT_SET_NO":"999","OBJECT_NAME":"STARLINK-3997","PERIOD":"95.438","NORAD_CAT_ID":"52609","FILE":"3673849","TIME_SYSTEM":"UTC","ECCENTRICITY":"0.00029970","DECAY_DATE":null,"CLASSIFICATION_TYPE":"U","BSTAR":"0.00025646000000","OBJECT_TYPE":"PAYLOAD","MEAN_MOTION_DOT":"0.00003794","MEAN_ELEMENT_THEORY":"SGP4","EPOCH":"2022-11-29T19:21:07.762176","OBJECT_ID":"2022-052M","COUNTRY_CODE":"US","APOAPSIS":"541.851","LAUNCH_DATE":"2022-05-14","MEAN_MOTION_DDOT":"0.0000000000000","INCLINATION":"53.2165","REF_FRAME":"TEME","RCS_SIZE":"LARGE","REV_AT_EPOCH":"3032","GP_ID":"219112683","TLE_LINE2":"2 52609  53.2165 247.6606 0002997  32.6182 327.4995 15.08829571 30329","TLE_LINE1":"1 52609U 22052M   22333.80633984  .00003794  00000-0  25646-3 0  9996","ARG_OF_PERICENTER":"32.6182","MEAN_MOTION":"15.08829571","RA_OF_ASC_NODE":"247.6606","SITE":"AFETR","PERIAPSIS":"537.704"},{"SEMIMAJOR_AXIS":"6917.864","EPHEMERIS_TYPE":"0","MEAN_ANOMALY":"328.4182","PERIOD":"95.437","OBJECT_NAME":"STARLINK-3998","ELEMENT_SET_NO":"999","CENTER_NAME":"EARTH","DECAY_DATE":null,"ECCENTRICITY":"0.00034430","TIME_SYSTEM":"UTC","FILE":"3673849","NORAD_CAT_ID":"52610","OBJECT_TYPE":"PAYLOAD","BSTAR":"-0.00006785100000","CLASSIFICATION_TYPE":"U","APOAPSIS":"542.110","COUNTRY_CODE":"US","OBJECT_ID":"2022-052N","MEAN_MOTION_DOT":"-0.00001369","MEAN_ELEMENT_THEORY":"SGP4","EPOCH":"2022-11-29T12:33:41.112000","RCS_SIZE":"LARGE","REF_FRAME":"TEME","LAUNCH_DATE":"2022-05-14","MEAN_MOTION_DDOT":"0.0000000000000","INCLINATION":"53.2199","TLE_LINE1":"1 52610U 22052N   22333.52339250 -.00001369  00000-0 -67851-4 0  9999","GP_ID":"219113431","TLE_LINE2":"2 52610  53.2199 253.9155 0003443  31.7017 328.4182 15.08845486 30200","REV_AT_EPOCH":"3020","PERIAPSIS":"537.347","SITE":"AFETR","RA_OF_ASC_NODE":"253.9155","MEAN_MOTION":"15.08845486","ARG_OF_PERICENTER":"31.7017"},{"MEAN_MOTION_DDOT":"0.0000000000000","INCLINATION":"53.2186","LAUNCH_DATE":"2022-05-14","RCS_SIZE":"LARGE","REF_FRAME":"TEME","OBJECT_ID":"2022-052P","EPOCH":"2022-11-29T18:44:38.145120","MEAN_MOTION_DOT":"0.00003032","MEAN_ELEMENT_THEORY":"SGP4","APOAPSIS":"541.512","COUNTRY_CODE":"US","RA_OF_ASC_NODE":"252.7614","MEAN_MOTION":"15.08839519","ARG_OF_PERICENTER":"37.1243","PERIAPSIS":"537.981","SITE":"AFETR","REV_AT_EPOCH":"3024","TLE_LINE1":"1 52611U 22052P   22333.78099705  .00003032  00000-0  20852-3 0  9992","TLE_LINE2":"2 52611  53.2186 252.7614 0002552  37.1243 322.9925 15.08839519 30243","GP_ID":"219112181","ELEMENT_SET_NO":"999","CENTER_NAME":"EARTH","PERIOD":"95.438","OBJECT_NAME":"STARLINK-3980","MEAN_ANOMALY":"322.9925","EPHEMERIS_TYPE":"0","SEMIMAJOR_AXIS":"6917.882","CLASSIFICATION_TYPE":"U","OBJECT_TYPE":"PAYLOAD","BSTAR":"0.00020852000000","TIME_SYSTEM":"UTC","FILE":"3673849","NORAD_CAT_ID":"52611","DECAY_DATE":null,"ECCENTRICITY":"0.00025520"},{"MEAN_MOTION":"15.08831022","ARG_OF_PERICENTER":"35.1763","RA_OF_ASC_NODE":"249.1355","SITE":"AFETR","PERIAPSIS":"537.908","REV_AT_EPOCH":"3064","GP_ID":"219076612","TLE_LINE2":"2 52612  53.2183 249.1355 0002695  35.1763 324.9407 15.08831022 30648","TLE_LINE1":"1 52612U 22052Q   22333.47786131  .00000554  00000-0  52922-4 0  9995","LAUNCH_DATE":"2022-05-14","INCLINATION":"53.2183","MEAN_MOTION_DDOT":"0.0000000000000","REF_FRAME":"TEME","RCS_SIZE":"LARGE","MEAN_MOTION_DOT":"0.00000554","MEAN_ELEMENT_THEORY":"SGP4","EPOCH":"2022-11-29T11:28:07.217184","OBJECT_ID":"2022-052Q","COUNTRY_CODE":"US","APOAPSIS":"541.637","CLASSIFICATION_TYPE":"U","OBJECT_TYPE":"PAYLOAD","BSTAR":"0.00005292200000","NORAD_CAT_ID":"52612","FILE":"3673352","TIME_SYSTEM":"UTC","ECCENTRICITY":"0.00026950","DECAY_DATE":null,"CENTER_NAME":"EARTH","ELEMENT_SET_NO":"999","OBJECT_NAME":"STARLINK-4002","PERIOD":"95.438","EPHEMERIS_TYPE":"0","MEAN_ANOMALY":"324.9407","SEMIMAJOR_AXIS":"6917.908"},{"LAUNCH_DATE":"2022-05-14","INCLINATION":"53.2164","MEAN_MOTION_DDOT":"0.0000000000000","RCS_SIZE":"LARGE","REF_FRAME":"TEME","OBJECT_ID":"2022-052R","MEAN_MOTION_DOT":"0.00001716","MEAN_ELEMENT_THEORY":"SGP4","EPOCH":"2022-11-29T18:59:52.220832","APOAPSIS":"541.081","COUNTRY_CODE":"US","RA_OF_ASC_NODE":"237.7048","ARG_OF_PERICENTER":"49.2577","MEAN_MOTION":"15.08839753","PERIAPSIS":"538.411","SITE":"AFETR","REV_AT_EPOCH":"3045","TLE_LINE1":"1 52613U 22052R   22333.79157663  .00001716  00000-0  12592-3 0  9992","GP_ID":"219113182","TLE_LINE2":"2 52613  53.2164 237.7048 0001930  49.2577 310.8582 15.08839753 30456","ELEMENT_SET_NO":"999","CENTER_NAME":"EARTH","PERIOD":"95.438","OBJECT_NAME":"STARLINK-3921","MEAN_ANOMALY":"310.8582","EPHEMERIS_TYPE":"0","SEMIMAJOR_AXIS":"6917.881","CLASSIFICATION_TYPE":"U","OBJECT_TYPE":"PAYLOAD","BSTAR":"0.00012592000000","TIME_SYSTEM":"UTC","NORAD_CAT_ID":"52613","FILE":"3673849","DECAY_DATE":null,"ECCENTRICITY":"0.00019300"}];
